<?xml version="1.0" encoding="UTF-8"?>
<kml xmlns="http://www.opengis.net/kml/2.2">
  <Document>
    <name>Gandhinagar planned route</name>
    <Placemark>
      <name>Simulator corridor</name>
      <LineString>
        <coordinates>
          72.6480,23.2205,0
          72.6582,23.2243,0
          72.6715,23.2277,0
          72.6760,23.2170,0
          72.6660,23.2075,0
          72.6520,23.2020,0
          72.6380,23.2060,0
          72.6360,23.2130,0
          72.6480,23.2205,0
        </coordinates>
      </LineString>
    </Placemark>
  </Document>
</kml>
